CCSDS_OMM_VERS = 2.0
CREATION_DATE  = 
ORIGINATOR     = 

OBJECT_NAME    = CORAL
OBJECT_ID      = 1998-067YA
CENTER_NAME    = EARTH
REF_FRAME      = TEME
TIME_SYSTEM    = UTC
MEAN_ELEMENT_THEORY = SGP/SGP4

EPOCH          = 2026-03-21T12:32:57.858432
MEAN_MOTION    = 15.56214538
ECCENTRICITY   = .00120744
INCLINATION    = 51.6312
RA_OF_ASC_NODE = 12.4272
ARG_OF_PERICENTER = 217.4243
MEAN_ANOMALY   = 142.5908

EPHEMERIS_TYPE = 0
CLASSIFICATION_TYPE = U
NORAD_CAT_ID   = 67684
ELEMENT_SET_NO = 999
REV_AT_EPOCH   = 663
BSTAR          = .14993478E-2
MEAN_MOTION_DOT = .108459E-2
MEAN_MOTION_DDOT = 0

CCSDS_OMM_VERS = 2.0
CREATION_DATE  = 
ORIGINATOR     = 

OBJECT_NAME    = GXIBA-1
OBJECT_ID      = 1998-067YB
CENTER_NAME    = EARTH
REF_FRAME      = TEME
TIME_SYSTEM    = UTC
MEAN_ELEMENT_THEORY = SGP/SGP4

EPOCH          = 2026-03-21T02:45:32.098176
MEAN_MOTION    = 15.53173336
ECCENTRICITY   = .00116659
INCLINATION    = 51.6326
RA_OF_ASC_NODE = 14.9523
ARG_OF_PERICENTER = 223.8015
MEAN_ANOMALY   = 136.2051

EPHEMERIS_TYPE = 0
CLASSIFICATION_TYPE = U
NORAD_CAT_ID   = 67685
ELEMENT_SET_NO = 999
REV_AT_EPOCH   = 656
BSTAR          = .74015681E-3
MEAN_MOTION_DOT = .47255E-3
MEAN_MOTION_DDOT = 0

CCSDS_OMM_VERS = 2.0
CREATION_DATE  = 
ORIGINATOR     = 

OBJECT_NAME    = UITMSAT-2
OBJECT_ID      = 1998-067YC
CENTER_NAME    = EARTH
REF_FRAME      = TEME
TIME_SYSTEM    = UTC
MEAN_ELEMENT_THEORY = SGP/SGP4

EPOCH          = 2026-03-20T04:54:06.523488
MEAN_MOTION    = 15.53839493
ECCENTRICITY   = .00085039
INCLINATION    = 51.6331
RA_OF_ASC_NODE = 19.3725
ARG_OF_PERICENTER = 189.8163
MEAN_ANOMALY   = 170.2663

EPHEMERIS_TYPE = 0
CLASSIFICATION_TYPE = U
NORAD_CAT_ID   = 67686
ELEMENT_SET_NO = 999
REV_AT_EPOCH   = 642
BSTAR          = .56833207E-3
MEAN_MOTION_DOT = .36971E-3
MEAN_MOTION_DDOT = 0

CCSDS_OMM_VERS = 2.0
CREATION_DATE  = 
ORIGINATOR     = 

OBJECT_NAME    = HMU-SAT2
OBJECT_ID      = 1998-067YD
CENTER_NAME    = EARTH
REF_FRAME      = TEME
TIME_SYSTEM    = UTC
MEAN_ELEMENT_THEORY = SGP/SGP4

EPOCH          = 2026-03-21T02:50:51.231264
MEAN_MOTION    = 15.52930306
ECCENTRICITY   = .00082419
INCLINATION    = 51.6326
RA_OF_ASC_NODE = 14.9790
ARG_OF_PERICENTER = 196.2419
MEAN_ANOMALY   = 163.8308

EPHEMERIS_TYPE = 0
CLASSIFICATION_TYPE = U
NORAD_CAT_ID   = 67687
ELEMENT_SET_NO = 999
REV_AT_EPOCH   = 648
BSTAR          = .71638411E-3
MEAN_MOTION_DOT = .45244E-3
MEAN_MOTION_DDOT = 0

CCSDS_OMM_VERS = 2.0
CREATION_DATE  = 
ORIGINATOR     = 

OBJECT_NAME    = LEOPARD
OBJECT_ID      = 1998-067YE
CENTER_NAME    = EARTH
REF_FRAME      = TEME
TIME_SYSTEM    = UTC
MEAN_ELEMENT_THEORY = SGP/SGP4

EPOCH          = 2026-03-21T02:37:26.409216
MEAN_MOTION    = 15.53580320
ECCENTRICITY   = .00084068
INCLINATION    = 51.6330
RA_OF_ASC_NODE = 14.9166
ARG_OF_PERICENTER = 194.0087
MEAN_ANOMALY   = 166.0671

EPHEMERIS_TYPE = 0
CLASSIFICATION_TYPE = U
NORAD_CAT_ID   = 67688
ELEMENT_SET_NO = 999
REV_AT_EPOCH   = 648
BSTAR          = .78511675E-3
MEAN_MOTION_DOT = .50861E-3
MEAN_MOTION_DDOT = 0

CCSDS_OMM_VERS = 2.0
CREATION_DATE  = 
ORIGINATOR     = 

OBJECT_NAME    = CREW DRAGON 12
OBJECT_ID      = 2026-031A
CENTER_NAME    = EARTH
REF_FRAME      = TEME
TIME_SYSTEM    = UTC
MEAN_ELEMENT_THEORY = SGP/SGP4

EPOCH          = 2026-03-21T12:25:18.954336
MEAN_MOTION    = 15.48422342
ECCENTRICITY   = .000631
INCLINATION    = 51.6347
RA_OF_ASC_NODE = 13.8885
ARG_OF_PERICENTER = 215.8915
MEAN_ANOMALY   = 144.1650

EPHEMERIS_TYPE = 0
CLASSIFICATION_TYPE = U
NORAD_CAT_ID   = 67796
ELEMENT_SET_NO = 999
REV_AT_EPOCH   = 55808
BSTAR          = .26848155E-3
MEAN_MOTION_DOT = .1408E-3
MEAN_MOTION_DDOT = 0

